GLOBALSTAR M084 [+]     
1 38040U 11080A   23311.45128360 -.00000092  00000+0  64418-4 0  9992
2 38040  52.0028  37.7559 0000675 137.2643 303.2717 12.62267326548449
GLOBALSTAR M080 [+]     
1 38041U 11080B   23311.48942074 -.00000095  00000+0  49682-4 0  9991
2 38041  52.0082  39.0398 0000885 136.3738 237.6707 12.62265823548577
GLOBALSTAR M082 [+]     
1 38042U 11080C   23311.42343681 -.00000069  00000+0  19280-3 0  9996
2 38042  52.0100 354.6257 0000552  15.4939 359.7210 12.62267680549276
GLOBALSTAR M092 [+]     
1 38043U 11080D   23311.80844885 -.00000090  00000+0  78879-4 0  9995
2 38043  52.0079  83.7935 0000745 133.0949 313.3122 12.62274029547986
GLOBALSTAR M090 [+]     
1 38044U 11080E   23311.36987205 -.00000067  00000+0  20286-3 0  9993
2 38044  51.9907 349.3537 0000426  54.3007 318.3121 12.62263136549387
GLOBALSTAR M086 [+]     
1 38045U 11080F   23311.82749027 -.00000078  00000+0  14347-3 0  9996
2 38045  51.9919 348.4671 0001299  95.4472  76.6126 12.62263974549481
GLOBALSTAR M097 [+]     
1 39072U 13005A   23311.57860822 -.00000088  00000+0  85414-4 0  9990
2 39072  52.0050 263.1742 0000928  53.9494 306.1459 12.62272437496680
GLOBALSTAR M093 [+]     
1 39073U 13005B   23311.55211493 -.00000082  00000+0  12187-3 0  9993
2 39073  51.9812 257.4984 0001185  54.6161 305.4816 12.62268527496554
